ONEWEB-0687             
1 61595U 24188B   25232.29574192  .00000056  00000+0  11066-3 0  9999
2 61595  87.9020  65.7841 0001842 108.5405 251.5927 13.17648826 44569
ONEWEB-0688             
1 61596U 24188C   25232.24849197 -.00000002  00000+0 -37265-4 0  9998
2 61596  87.9019  65.7935 0002919 104.8010 255.3445 13.17648820 44335
ONEWEB-0689             
1 61597U 24188D   25231.58963793  .00000143  00000+0  36795-3 0  9994
2 61597  87.8748  81.1674 0001517  95.0539 265.0762 13.11413615 44927
ONEWEB-0690             
1 61598U 24188E   25232.28647569 -.00000172  00000+0 -52066-3 0  9996
2 61598  87.8793  80.9983 0002088  65.6737 294.4609 13.11413828 43308
ONEWEB-0691             
1 61599U 24188F   25232.28140409  .00000101  00000+0  25012-3 0  9999
2 61599  87.8710  80.9745 0002086  90.4203 269.7164 13.11414691 43328
ONEWEB-0692             
1 61600U 24188G   25231.61504094 -.00000456  00000+0 -13221-2 0  9995
2 61600  87.8778  81.2020 0000829  72.7371 287.3848 13.11420020 44944
ONEWEB-0693             
1 61601U 24188H   25232.26030319  .00000029  00000+0  41292-4 0  9997
2 61601  87.9022  65.8091 0002448  73.3120 286.8280 13.17650323 44482
ONEWEB-0695             
1 61602U 24188J   25231.59129770  .00000142  00000+0  36353-3 0  9990
2 61602  87.8780  81.1928 0001213  95.5450 264.5816 13.11412200 44936
